NORAD_CAT_ID,OBJECT_NAME,OBJECT_TYPE,EPOCH,MEAN_MOTION,ECCENTRICITY,INCLINATION,RA_OF_ASC_NODE,ARG_OF_PERICENTER,MEAN_ANOMALY,BSTAR,MEAN_MOTION_DOT,MEAN_MOTION_DDOT,TLE_LINE0,TLE_LINE1,TLE_LINE2,SEMIMAJOR_AXIS,PERIOD,APOGEE,PERIGEE,DECAYED
52280.0,STARLINK-3764,PAYLOAD,2024-03-10 11:39:52,15.08834006,0.0001383,53.2172,142.6467,88.2281,271.887,-5.3414e-06,-3.73e-06,0.0,0 STARLINK-3764,1 52280U 22041V   24070.48602464 -.00000373  00000-0 -53414-5 0  9990,2 52280  53.2172 142.6467 0001383  88.2281 271.8870 15.08834006105502,6917.899,95.438,540.72,538.807,0.0
52280.0,STARLINK-3764,PAYLOAD,2024-03-10 21:12:11,15.0883914,0.0001418,53.2173,140.8622,87.009,273.1065,-8.8306e-06,-4.28e-06,0.0,0 STARLINK-3764,1 52280U 22041V   24070.88346237 -.00000428  00000-0 -88306-5 0  9996,2 52280  53.2173 140.8622 0001418  87.0090 273.1065 15.08839140104346,6917.883,95.438,540.729,538.767,0.0
52280.0,STARLINK-3764,PAYLOAD,2024-03-11 11:30:38,15.08845241,0.0001444,53.217,138.1849,84.0444,276.0713,0.00015993,2.259e-05,0.0,0 STARLINK-3764,1 52280U 22041V   24071.47961600  .00002259  00000-0  15993-3 0  9991,2 52280  53.2170 138.1849 0001444  84.0444 276.0713 15.08845241105659,6917.864,95.437,540.728,538.73,0.0
52280.0,STARLINK-3764,PAYLOAD,2024-03-11 21:02:58,15.08839696,0.0001539,53.2173,136.396,79.4545,280.662,0.00013121,1.801e-05,0.0,0 STARLINK-3764,1 52280U 22041V   24071.87706022  .00001801  00000-0  13121-3 0  9993,2 52280  53.2173 136.3960 0001539  79.4545 280.6620 15.08839696105713,6917.881,95.438,540.811,538.682,0.0
52280.0,STARLINK-3764,PAYLOAD,2024-03-12 04:59:54,15.08834106,0.0001498,53.2171,134.9131,88.217,271.8993,8.889e-05,1.127e-05,0.0,0 STARLINK-3764,1 52280U 22041V   24072.20826714  .00001127  00000-0  88890-4 0  9999,2 52280  53.2171 134.9131 0001498  88.2170 271.8993 15.08834106105762,6917.898,95.438,540.8,538.727,0.0
52280.0,STARLINK-3764,PAYLOAD,2024-03-12 11:21:26,15.08839023,0.0001415,53.217,133.7249,93.1521,266.9633,0.00013447,1.853e-05,0.0,0 STARLINK-3764,1 52280U 22041V   24072.47322377  .00001853  00000-0  13447-3 0  9995,2 52280  53.2170 133.7249 0001415  93.1521 266.9633 15.08839023104580,6917.883,95.438,540.727,538.769,0.0
52280.0,STARLINK-3764,PAYLOAD,2024-03-13 11:12:13,15.08846746,0.0001402,53.2166,129.265,101.5084,258.6066,3.1272e-05,2.1e-06,0.0,0 STARLINK-3764,1 52280U 22041V   24073.46682090  .00000210  00000-0  31272-4 0  9999,2 52280  53.2166 129.2650 0001402 101.5084 258.6066 15.08846746104730,6917.86,95.437,540.695,538.755,0.0
52280.0,STARLINK-3764,PAYLOAD,2024-03-13 20:44:32,15.0884771,0.0001293,53.2161,127.4804,96.595,263.5189,2.7477e-05,1.5e-06,0.0,0 STARLINK-3764,1 52280U 22041V   24073.86425939  .00000150  00000-0  27477-4 0  9995,2 52280  53.2161 127.4804 0001293  96.5950 263.5189 15.08847710106015,6917.857,95.437,540.616,538.827,0.0
52280.0,STARLINK-3764,PAYLOAD,2024-03-14 03:06:04,15.08840006,0.000137,53.2149,126.2909,88.0219,272.093,0.00011554,1.551e-05,0.0,0 STARLINK-3764,1 52280U 22041V   24074.12922205  .00001551  00000-0  11554-3 0  9997,2 52280  53.2149 126.2909 0001370  88.0219 272.0930 15.08840006104832,6917.88,95.438,540.693,538.798,0.0
52280.0,STARLINK-3764,PAYLOAD,2024-03-14 11:03:00,15.08846101,0.0001506,53.2156,124.8041,86.5523,273.5641,0.0001469,2.051e-05,0.0,0 STARLINK-3764,1 52280U 22041V   24074.46041931  .00002051  00000-0  14690-3 0  9992,2 52280  53.2156 124.8041 0001506  86.5523 273.5641 15.08846101104885,6917.862,95.437,540.769,538.685,0.0
52280.0,STARLINK-3764,PAYLOAD,2024-03-15 02:56:52,15.08838555,0.0001635,53.2165,121.831,83.4237,276.6941,4.4168e-05,4.15e-06,0.0,0 STARLINK-3764,1 52280U 22041V   24075.12282480  .00000415  00000-0  44168-4 0  9998,2 52280  53.2165 121.8310 0001635  83.4237 276.6941 15.08838555106201,6917.885,95.438,540.881,538.619,0.0
52280.0,STARLINK-3764,PAYLOAD,2024-03-15 09:18:24,15.08836624,0.0001536,53.2152,120.6414,87.1821,272.9347,-2.0703e-06,-3.21e-06,0.0,0 STARLINK-3764,1 52280U 22041V   24075.38778585 -.00000321  00000-0 -20703-5 0  9990,2 52280  53.2152 120.6414 0001536  87.1821 272.9347 15.08836624105022,6917.891,95.438,540.818,538.693,0.0
52280.0,STARLINK-3764,PAYLOAD,2024-03-16 09:09:11,15.0884308,0.000163,53.2168,116.1809,91.8455,268.2724,6.6112e-05,7.64e-06,0.0,0 STARLINK-3764,1 52280U 22041V   24076.38138332  .00000764  00000-0  66112-4 0  9993,2 52280  53.2168 116.1809 0001630  91.8455 268.2724 15.08843080106399,6917.871,95.437,540.864,538.608,0.0
52280.0,STARLINK-3764,PAYLOAD,2024-03-17 07:24:35,15.08839475,0.0001684,53.2175,112.0161,99.46,260.6582,8.7324e-05,1.102e-05,0.0,0 STARLINK-3764,1 52280U 22041V   24077.30874541  .00001102  00000-0  87324-4 0  9990,2 52280  53.2175 112.0161 0001684  99.4600 260.6582 15.08839475106535,6917.882,95.438,540.912,538.582,0.0
52280.0,STARLINK-3764,PAYLOAD,2024-03-18 08:50:46,15.08838175,0.0001751,53.2177,107.2601,103.2372,256.8815,3.9605e-05,3.42e-06,0.0,0 STARLINK-3764,1 52280U 22041V   24078.36858870  .00000342  00000-0  39605-4 0  9998,2 52280  53.2177 107.2601 0001751 103.2372 256.8815 15.08838175106696,6917.886,95.438,540.962,538.54,0.0
52280.0,STARLINK-3764,PAYLOAD,2024-03-19 07:06:09,15.08841567,0.0001789,53.218,103.098,104.8358,255.2833,0.000103,1.352e-05,0.0,0 STARLINK-3764,1 52280U 22041V   24079.29594707  .00001352  00000-0  10300-3 0  9999,2 52280  53.2180 103.0980 0001789 104.8358 255.2833 15.08841567105619,6917.876,95.437,540.978,538.503,0.0
52280.0,STARLINK-3764,PAYLOAD,2024-03-20 00:35:24,15.08842565,0.0001699,53.2175,99.8236,99.0892,261.0293,0.00010613,1.402e-05,0.0,0 STARLINK-3764,1 52280U 22041V   24080.02458693  .00001402  00000-0  10613-3 0  9998,2 52280  53.2175  99.8236 0001699  99.0892 261.0293 15.08842565106948,6917.873,95.437,540.913,538.562,0.0
52280.0,STARLINK-3764,PAYLOAD,2024-03-20 10:07:42,15.08845844,0.0001627,53.2171,98.0387,92.3959,267.722,0.00012355,1.679e-05,0.0,0 STARLINK-3764,1 52280U 22041V   24080.42202488  .00001679  00000-0  12355-3 0  9992,2 52280  53.2171  98.0387 0001627  92.3959 267.7220 15.08845844105780,6917.863,95.437,540.853,538.602,0.0
52280.0,STARLINK-3764,PAYLOAD,2024-03-21 05:12:21,15.08838085,0.0001714,53.2178,94.4711,101.8075,258.3109,1.2059e-05,-9.6e-07,0.0,0 STARLINK-3764,1 52280U 22041V   24081.21691320 -.00000096  00000-0  12059-4 0  9992,2 52280  53.2178  94.4711 0001714 101.8075 258.3109 15.08838085107121,6917.886,95.438,540.937,538.566,0.0
52280.0,STARLINK-3764,PAYLOAD,2024-03-21 09:58:30,15.08844314,0.0001627,53.2169,93.5784,105.6862,254.431,5.7565e-05,6.28e-06,0.0,0 STARLINK-3764,1 52280U 22041V   24081.41562753  .00000628  00000-0  57565-4 0  9992,2 52280  53.2169  93.5784 0001627 105.6862 254.4310 15.08844314107156,6917.867,95.437,540.858,538.607,0.0
52280.0,STARLINK-3764,PAYLOAD,2024-03-21 17:55:26,15.088415,0.0001723,53.2173,92.09,101.7817,258.3369,6.9238e-05,8.14e-06,0.0,0 STARLINK-3764,1 52280U 22041V   24081.74682996  .00000814  00000-0  69238-4 0  9997,2 52280  53.2173  92.0900 0001723 101.7817 258.3369 15.08841500105989,6917.876,95.437,540.933,538.549,0.0
52280.0,STARLINK-3764,PAYLOAD,2024-03-22 09:49:16,15.08854729,0.0001541,53.2164,89.1158,102.8945,257.2219,0.00022093,3.231e-05,0.0,0 STARLINK-3764,1 52280U 22041V   24082.40922009  .00003231  00000-0  22093-3 0  9996,2 52280  53.2164  89.1158 0001541 102.8945 257.2219 15.08854729106084,6917.835,95.437,540.766,538.634,0.0
52280.0,STARLINK-3764,PAYLOAD,2024-03-23 04:53:55,15.08837622,0.0001899,53.216,85.5454,113.0067,247.1125,5.0584e-05,5.17e-06,0.0,0 STARLINK-3764,1 52280U 22041V   24083.20411131  .00000517  00000-0  50584-4 0  9995,2 52280  53.2160  85.5454 0001899 113.0067 247.1125 15.08837622107420,6917.888,95.438,541.066,538.439,0.0
52280.0,STARLINK-3764,PAYLOAD,2024-03-23 17:37:00,15.08839839,0.000166,53.2156,83.1655,125.6638,234.4509,8.7974e-05,1.112e-05,0.0,0 STARLINK-3764,1 52280U 22041V   24083.73403000  .00001112  00000-0  87974-4 0  9994,2 52280  53.2156  83.1655 0001660 125.6638 234.4509 15.08839839106281,6917.881,95.438,540.894,538.598,0.0
52280.0,STARLINK-3764,PAYLOAD,2024-03-24 09:30:51,15.0885638,0.0001875,53.2171,80.1934,114.0625,246.0564,0.00042983,6.562e-05,0.0,0 STARLINK-3764,1 52280U 22041V   24084.39642493  .00006562  00000-0  42983-3 0  9992,2 52280  53.2171  80.1934 0001875 114.0625 246.0564 15.08856380107608,6917.83,95.437,540.992,538.398,0.0
52280.0,STARLINK-3764,PAYLOAD,2024-03-25 06:10:52,15.08840896,0.0001364,53.2162,76.3294,90.8367,269.2782,0.00031576,4.741e-05,0.0,0 STARLINK-3764,1 52280U 22041V   24085.25755597  .00004741  00000-0  31576-3 0  9991,2 52280  53.2162  76.3294 0001364  90.8367 269.2782 15.08840896107739,6917.878,95.437,540.686,538.799,0.0
52280.0,STARLINK-3764,PAYLOAD,2024-03-25 09:21:39,15.08844398,0.0001374,53.2166,75.7347,90.0537,270.0612,0.00045757,7.003e-05,0.0,0 STARLINK-3764,1 52280U 22041V   24085.39003601  .00007003  00000-0  45757-3 0  9998,2 52280  53.2166  75.7347 0001374  90.0537 270.0612 15.08844398106537,6917.867,95.437,540.682,538.781,0.0
52280.0,STARLINK-3764,PAYLOAD,2024-03-26 04:26:19,15.08819354,0.0002248,53.2171,72.1668,124.052,236.0686,0.00094011,0.00014697,0.0,0 STARLINK-3764,1 52280U 22041V   24086.18494408  .00014697  00000-0  94011-3 0  9999,2 52280  53.2171  72.1668 0002248 124.0520 236.0686 15.08819354107876,6917.943,95.439,541.364,538.253,0.0
52280.0,STARLINK-3764,PAYLOAD,2024-03-26 06:01:42,15.08835885,0.0001375,53.2171,71.8703,82.5887,277.5262,0.002304,0.00036567,0.0,0 STARLINK-3764,1 52280U 22041V   24086.25118861  .00036567  00000-0  23040-2 0  9996,2 52280  53.2171  71.8703 0001375  82.5887 277.5262 15.08835885107884,6917.893,95.438,540.709,538.807,0.0
52280.0,STARLINK-3764,PAYLOAD,2024-03-26 15:34:01,15.08853723,0.0001274,53.217,70.085,75.7447,284.3686,0.0015724,0.00024835,0.0,0 STARLINK-3764,1 52280U 22041V   24086.64862450  .00024835  00000-0  15724-2 0  9994,2 52280  53.2170  70.0850 0001274  75.7447 284.3686 15.08853723106720,6917.838,95.437,540.585,538.822,0.0
